{
  "norad_id": 67902,
  "name": "STARLINK-36876",
  "history": [
    {
      "epoch": "2026-03-28T18:36:11.132640",
      "apogee_km": 344.61263102870544,
      "perigee_km": 343.1754607910898,
      "latitude_deg": -76.20233738482898,
      "longitude_deg": -35.38763040024787,
      "semi_major_axis_km": 6722.031045909897,
      "eccentricity": 0.0001069,
      "inclination_deg": 97.2868,
      "raan_deg": 21.2017,
      "arg_perigee_deg": 82.3062,
      "mean_anomaly_deg": 277.8324,
      "mean_motion_rev_day": 15.75259078
    }
  ]
}